ZIYUAN 3 (ZY 3)         
1 38046U 12001A   17280.86805760  .00001458  00000-0  68271-4 0  9999
2 38046  97.5262 347.9482 0002927  42.4501  89.6960 15.21348133319087
RISAT-1                 
1 38248U 12017A   17280.87557854  .00000776  00000-0  52697-4 0  9996
2 38248  97.5750 287.1237 0005358  35.2524  57.7437 15.09252328300230
ARIRANG-3 (KOMPSAT-3)   
1 38338U 12025B   17280.82032331  .00000117  00000-0  32906-4 0  9998
2 38338  98.1452 217.2519 0010135 346.2777  13.8148 14.61596892287631
KANOPUS-V 1             
1 38707U 12039A   17280.84071190  .00000617  00000-0  31549-4 0  9998
2 38707  97.4488 197.5191 0002067  77.0602   8.5840 15.20292401289175
EXACTVIEW-1 (ADS-1B)    
1 38709U 12039C   17280.83538072  .00000011  00000-0  25579-4 0  9990
2 38709  99.1105 261.3156 0010143 293.2521  66.7589 14.23954093270865
SPOT 6                  
1 38755U 12047A   17280.86604171 -.00000001  00000-0  97138-5 0  9998
2 38755  98.2089 346.9378 0001469  89.7886 270.3470 14.58550696270362
PLEIADES 1B             
1 39019U 12068A   17280.67864776  .00000033  00000-0  16859-4 0  9997
2 39019  98.1935 354.3690 0001290  78.8922 281.2422 14.58555183258110
GOKTURK 2               
1 39030U 12073A   17280.84208100  .00000099  00000-0  23269-4 0  9993
2 39030  97.9790 171.7724 0002889  69.0208 291.1314 14.72669818257130
LANDSAT 8               
1 39084U 13008A   17280.29586173  .00000086  00000-0  29206-4 0  9992
2 39084  98.2134 349.2645 0001231  97.6719 262.4620 14.57107504247382
SARAL                   
1 39086U 13009A   17280.52642942 -.00000015  00000-0  10578-4 0  9993
2 39086  98.5405 106.3700 0000182  26.1821 333.9372 14.32012380241187
GAOFEN 1                
1 39150U 13018A   17280.88143046  .00000133  00000-0  26452-4 0  9993
2 39150  97.9469   2.8572 0020326  55.4272 304.8846 14.76507377239875
VNREDSAT 1              
1 39160U 13021B   17280.83772396  .00000114  00000-0  31286-4 0  9999
2 39160  98.0739 354.2687 0001152  75.0474 285.0844 14.62981328236071
ARIRANG-5 (KOMPSAT-5)   
1 39227U 13042A   17280.87196850  .00001169  00000-0  87721-4 0  9991
2 39227  97.6094 104.1359 0001684  80.7245  28.7496 15.04534854226632
YAOGAN 18               
1 39363U 13059A   17280.85290131  .00001510  00000-0  77443-4 0  9995
2 39363  97.3820 346.6801 0003437 105.0562   7.2848 15.18026831218419
SKYSAT-1                
1 39418U 13066C   17280.12727544  .00001030  00000-0  90700-4 0  9995
2 39418  97.6955   1.8337 0019858 271.0768  88.8147 14.98555419211845
DUBAISAT-2              
1 39419U 13066D   17280.80417293 -.00000015  00000-0  39218-5 0  9999
2 39419  97.6693 350.8871 0012430 252.4075 107.5795 14.93705591211311
GPM-CORE                
1 39574U 14009C   17280.43625360  .00005800  00000-0  88498-4 0  9993
2 39574  65.0082 258.1380 0010582 281.3517  78.6440 15.55484747204983
SENTINEL-1A             
1 39634U 14016A   17280.64735543 -.00000017  00000-0  60083-5 0  9993
2 39634  98.1821 286.6935 0001388  72.4850 287.6486 14.59198550187094
KAZEOSAT 1              
1 39731U 14024A   17280.89688475  .00000022  00000-0  20072-4 0  9996
2 39731  98.4120 358.4296 0001295  70.8398 289.2930 14.42021443181130
ALOS-2                  
1 39766U 14029A   17280.85893151 -.00000026  00000-0  33781-5 0  9991
2 39766  97.9224  16.5689 0001591  83.8065 276.3311 14.79471691182268
KAZEOSAT 2              
1 40010U 14033A   17280.80735362  .00000122  00000-0  22024-4 0  9997
2 40010  97.8829 180.8919 0015161 271.1332  88.8144 14.82067723178626
HODOYOSHI-4             
1 40011U 14033B   17280.85866033  .00000212  00000-0  34115-4 0  9997
2 40011  97.8723 177.1428 0025375 265.2218  94.6098 14.80919953178430
DEIMOS-2                
1 40013U 14033D   17280.71520927  .00000130  00000-0  21543-4 0  9993
2 40013  97.8737 183.4922 0001742  29.0374 331.0936 14.84853858178903
HODOYOSHI-3             
1 40015U 14033F   17280.47277260  .00000184  00000-0  32245-4 0  9997
2 40015  97.8592 171.0816 0035675 273.4806  86.2325 14.78288501178064
SPOT 7                  
1 40053U 14034A   17280.83109372 -.00000046  00000-0  00000+0 0  9995
2 40053  98.2220 346.6431 0001277  90.9921 269.1427 14.58541291174295
SKYSAT-2                
1 40072U 14037D   17280.35295208  .00000212  00000-0  34799-4 0  9991
2 40072  98.3462  35.9794 0007382  53.5988 306.5940 14.81022780175588
WORLDVIEW-3 (WV-3)      
1 40115U 14048A   17280.39069544  .00000166  00000-0  25797-4 0  9993
2 40115  97.8631 359.1901 0000928  40.6886 319.4399 14.84879604170755
YAOGAN 21               
1 40143U 14053A   17280.87617822  .00001950  00000-0  80879-4 0  9995
2 40143  97.3031 351.2270 0010780 147.7686 343.0558 15.25002091171576
YAOGAN 22               
1 40275U 14063A   17280.71041733 -.00000044  00000-0  00000+0 0  9994
2 40275 100.4222  32.1440 0006461 171.2113 188.9116 13.15322915142438
ASNARO                  
1 40298U 14070A   17280.88593601  .00001614  00000-0  79086-4 0  9999
2 40298  97.4648   0.7945 0002105  91.9112  13.4320 15.19573441161976
HODOYOSHI-1             
1 40299U 14070B   17280.85586541  .00001456  00000-0  65718-4 0  9993
2 40299  97.3985   1.8647 0014778  60.4106  50.5598 15.22490248162083
CHUBUSAT-1              
1 40300U 14070C   17280.85467322  .00001673  00000-0  77847-4 0  9998
2 40300  97.3895 358.6598 0022238  68.4704  24.8986 15.21114615161912
QSAT-EOS                
1 40301U 14070D   17280.84752101  .00003584  00000-0  15040-3 0  9999
2 40301  97.3831 359.0276 0028928  62.8765  31.0283 15.23744667161983
TSUBAME                 
1 40302U 14070E   17280.71850051  .00001983  00000-0  10266-3 0  9995
2 40302  97.3676 349.6503 0041379  90.6613   9.1486 15.16634296161401
YAOGAN 23               
1 40305U 14071A   17280.81227840  .00001711  00000-0  87637-4 0  9990
2 40305  97.4330 216.7533 0000496 132.6005 311.6803 15.17914647160513
YAOGAN 24               
1 40310U 14072A   17280.66279301  .00000184  00000-0  33385-4 0  9993
2 40310  98.0149  40.1027 0018560  69.3567 290.9632 14.77150186155328
CBERS 4                 
1 40336U 14079A   17280.85103292 -.00000007  00000-0  12472-4 0  9993
2 40336  98.4453 353.2332 0001765  77.4646 282.6731 14.35464828148574
RESURS P2               
1 40360U 14087A   17280.85137645  .00001753  00000-0  58992-4 0  9993
2 40360  97.2770  12.5634 0012063 103.7499   4.5397 15.32063483155636
YAOGAN 26               
1 40362U 14088A   17280.84874256  .00002377  00000-0  94144-4 0  9993
2 40362  97.3483 357.9893 0004528 236.7122 233.9760 15.26392463154941
SMAP                    
1 40376U 15003A   17280.79914837  .00000121  00000-0  32419-4 0  9992
2 40376  98.1251 286.8554 0001259 106.2700 253.8635 14.63375801143366
KOMPSAT-3A              
1 40536U 15014A   17280.84039328  .00001212  00000-0  73572-4 0  9998
2 40536  97.4881 218.3880 0009570 318.8057 125.3464 15.12364494140076
SENTINEL-2A             
1 40697U 15028A   17280.76693249 -.00000019  00000-0  93972-5 0  9992
2 40697  98.5723 354.0948 0001281  74.6636 285.4687 14.30814938119797
CARBONITE 1 (CBNT-1)    
1 40718U 15032D   17280.86358473  .00000092  00000-0  21389-4 0  9991
2 40718  97.9539 170.9901 0017647 132.6090 227.6609 14.74551660120854
YAOGAN 27               
1 40878U 15040A   17280.67006318 -.00000044  00000-0  00000+0 0  9994
2 40878 100.3844 339.3891 0007837 317.5474  42.5033 13.15956151101614
LAPAN-A2                
1 40931U 15052B   17280.64188170  .00000802  00000-0  22709-4 0  9997
2 40931   5.9995 150.9274 0013567  32.2382 327.8671 14.76547499109613
YAOGAN 28               
1 41026U 15064A   17280.86498558  .00002607  00000-0  91825-4 0  9994
2 41026  97.3302  47.1247 0008583 295.6513 163.2930 15.30174994106980
YAOGAN 29               
1 41038U 15069A   17280.86782973  .00000099  00000-0  19676-4 0  9996
2 41038  97.9100 261.4282 0001073  91.8538 268.2797 14.80412301100752
KENT RIDGE 1            
1 41167U 15077B   17280.83370370  .00001167  00000-0  31632-4 0  9992
2 41167  14.9857  81.4137 0011333 108.1710 118.5906 15.08772808 99978
TELEOS 1                
1 41169U 15077D   17280.56351808  .00001945  00000-0  77712-4 0  9992
2 41169  14.9808  80.4204 0010701 106.5141 320.4881 15.09557324 99968
JASON-3                 
1 41240U 16002A   17280.51784497 -.00000078  00000-0 -75449-4 0  9993
2 41240  66.0401 248.8313 0008271 267.6649  92.3419 12.80929367 80538
SENTINEL-3A             
1 41335U 16011A   17280.78765527  .00000024  00000-0  28159-4 0  9995
2 41335  98.6291 346.6116 0001241 102.9985 257.1334 14.26734426 85414
SENTINEL-1B             
1 41456U 16025A   17280.88686991 -.00000034  00000-0  25591-5 0  9992
2 41456  98.1821 286.7543 0001452  80.9113 279.2256 14.59198487 77294
ZIYUAN 3-2 (ZY 3-2)     
1 41556U 16033A   17280.85308434  .00001627  00000-0  75699-4 0  9993
2 41556  97.4561 356.5992 0001408 102.8177 350.2973 15.21368251 75378
NUSAT-1 (FRESCO)        
1 41557U 16033B   17280.83972706  .00002767  00000-0  10544-3 0  9994
2 41557  97.4567   0.3418 0013252 335.8816  24.1801 15.27498559 75626
NUSAT-2 (BATATA)        
1 41558U 16033C   17280.36083918  .00002787  00000-0  10680-3 0  9994
2 41558  97.4596 359.9292 0012718 336.5703  23.4955 15.27317206 75543
CARTOSAT-2C             
1 41599U 16040A   17280.83597380  .00001180  00000-0  59051-4 0  9994
2 41599  97.4473 341.1215 0015204  47.4162  64.4367 15.19265469 71755
SKYSAT-C1               
1 41601U 16040C   17280.53635936  .00001375  00000-0  62669-4 0  9990
2 41601  97.6020 347.1966 0002184  78.3395 281.8087 15.22394682 71839
LAPAN-A3                
1 41603U 16040E   17280.79697666  .00000336  00000-0  19050-4 0  9990
2 41603  97.4503 341.3627 0015016  45.9274  65.8837 15.19429175 71755
BIROS                   
1 41604U 16040F   17280.36837995  .00001102  00000-0  52714-4 0  9991
2 41604  97.4500 341.6016 0013661  41.7322 318.4953 15.21026210 71730
